NORAD_CAT_ID,OBJECT_NAME,OBJECT_TYPE,EPOCH,MEAN_MOTION,ECCENTRICITY,INCLINATION,RA_OF_ASC_NODE,ARG_OF_PERICENTER,MEAN_ANOMALY,BSTAR,MEAN_MOTION_DOT,MEAN_MOTION_DDOT,TLE_LINE0,TLE_LINE1,TLE_LINE2,SEMIMAJOR_AXIS,PERIOD,APOGEE,PERIGEE,DECAYED
52332.0,STARLINK-3831,PAYLOAD,2024-05-09 07:17:11,15.08856348,0.0001282,53.2162,334.1241,85.84,274.2739,0.0010318,0.00016179,0.0,0 STARLINK-3831,1 52332U 22045B   24130.30360577  .00016179  00000-0  10318-2 0  9998,2 52332  53.2162 334.1241 0001282  85.8400 274.2739 15.08856348114583,6917.83,95.437,540.582,538.809,0.0
52332.0,STARLINK-3831,PAYLOAD,2024-05-09 20:00:16,15.08844203,0.0001488,53.2183,331.7434,96.2915,263.8247,0.00026755,3.973e-05,0.0,0 STARLINK-3831,1 52332U 22045B   24130.83352679  .00003973  00000-0  26755-3 0  9991,2 52332  53.2183 331.7434 0001488  96.2915 263.8247 15.08844203114662,6917.868,95.437,540.762,538.703,0.0
52332.0,STARLINK-3831,PAYLOAD,2024-05-10 13:29:30,15.08849737,0.0001417,53.2185,328.4706,107.6164,252.4983,0.00028982,4.329e-05,0.0,0 STARLINK-3831,1 52332U 22045B   24131.56216328  .00004329  00000-0  28982-3 0  9992,2 52332  53.2185 328.4706 0001417 107.6164 252.4983 15.08849737114774,6917.851,95.437,540.696,538.735,0.0
52332.0,STARLINK-3831,PAYLOAD,2024-05-10 19:51:03,15.08849872,0.00013,53.2181,327.2821,85.1847,274.9294,0.0002148,3.133e-05,0.0,0 STARLINK-3831,1 52332U 22045B   24131.82712360  .00003133  00000-0  21480-3 0  9996,2 52332  53.2181 327.2821 0001300  85.1847 274.9294 15.08849872114813,6917.85,95.437,540.615,538.816,0.0
52332.0,STARLINK-3831,PAYLOAD,2024-05-11 13:20:13,15.08908477,0.0001092,53.2181,324.01,97.2908,262.8208,0.00093607,0.00014669,0.0,0 STARLINK-3831,1 52332U 22045B   24132.55571635  .00014669  00000-0  93607-3 0  9991,2 52332  53.2181 324.0100 0001092  97.2908 262.8208 15.08908477114928,6917.671,95.433,540.291,538.781,0.0
52332.0,STARLINK-3831,PAYLOAD,2024-05-11 19:41:50,15.08761038,0.0001576,53.2181,322.8206,96.634,263.4832,-0.002348,-0.00037382,0.0,0 STARLINK-3831,1 52332U 22045B   24132.82072816 -.00037382  00000-0 -23480-2 0  9998,2 52332  53.2181 322.8206 0001576  96.6340 263.4832 15.08761038114965,6918.122,95.443,541.077,538.896,0.0
52332.0,STARLINK-3831,PAYLOAD,2024-05-12 05:14:11,15.08740155,0.0001369,53.2173,321.0365,90.5242,269.5907,-0.0022511,-0.00035838,0.0,0 STARLINK-3831,1 52332U 22045B   24133.21819261 -.00035838  00000-0 -22511-2 0  9993,2 52332  53.2173 321.0365 0001369  90.5242 269.5907 15.08740155115022,6918.186,95.444,540.998,539.103,0.0
52332.0,STARLINK-3831,PAYLOAD,2024-05-12 19:32:41,15.08793417,0.0001391,53.2169,318.3634,98.3342,261.7808,0.00038347,5.813e-05,0.0,0 STARLINK-3831,1 52332U 22045B   24133.81436832  .00005813  00000-0  38347-3 0  9991,2 52332  53.2169 318.3634 0001391  98.3342 261.7808 15.08793417115110,6918.023,95.441,540.85,538.925,0.0
52332.0,STARLINK-3831,PAYLOAD,2024-05-13 05:05:01,15.08801223,0.0001366,53.2166,316.5788,91.9904,268.1245,0.001285,0.000202,0.0,0 STARLINK-3831,1 52332U 22045B   24134.21182307  .00020200  00000-0  12850-2 0  9998,2 52332  53.2166 316.5788 0001366  91.9904 268.1245 15.08801223115179,6917.999,95.44,540.809,538.919,0.0
52332.0,STARLINK-3831,PAYLOAD,2024-05-13 20:58:52,15.08851403,0.0001486,53.2152,313.6038,87.2295,272.8867,0.0013884,0.00021884,0.0,0 STARLINK-3831,1 52332U 22045B   24134.87421922  .00021884  00000-0  13884-2 0  9996,2 52332  53.2152 313.6038 0001486  87.2295 272.8867 15.08851403115272,6917.846,95.437,540.739,538.683,0.0
52332.0,STARLINK-3831,PAYLOAD,2024-05-14 04:55:47,15.0888446,0.0001621,53.2159,312.1179,85.6258,274.4919,0.0012726,0.00020048,0.0,0 STARLINK-3831,1 52332U 22045B   24135.20540531  .00020048  00000-0  12726-2 0  9997,2 52332  53.2159 312.1179 0001621  85.6258 274.4919 15.08884460115322,6917.744,95.435,540.731,538.488,0.0
52332.0,STARLINK-3831,PAYLOAD,2024-05-15 11:08:02,15.08908323,0.0004477,53.1974,306.4677,84.3724,275.7779,0.00031282,4.703e-05,0.0,0 STARLINK-3831,1 52332U 22045B   24136.46391429  .00004703  00000-0  31282-3 0  9995,2 52332  53.1974 306.4677 0004477  84.3724 275.7779 15.08908323115515,6917.672,95.433,542.634,536.44,0.0
52332.0,STARLINK-3831,PAYLOAD,2024-05-15 20:40:20,15.08868622,0.0001931,53.2173,304.6828,97.3144,262.8067,-0.00048147,-7.949e-05,0.0,0 STARLINK-3831,1 52332U 22045B   24136.86135386 -.00007949  00000-0 -48147-3 0  9992,2 52332  53.2173 304.6828 0001931  97.3144 262.8067 15.08868622115577,6917.793,95.436,540.994,538.322,0.0
52332.0,STARLINK-3831,PAYLOAD,2024-05-16 10:58:49,15.08833394,0.0002426,53.2156,302.0067,85.3893,274.7376,-0.0007982,-0.00012968,0.0,0 STARLINK-3831,1 52332U 22045B   24137.45751808 -.00012968  00000-0 -79820-3 0  9990,2 52332  53.2156 302.0067 0002426  85.3893 274.7376 15.08833394115666,6917.901,95.438,541.444,538.087,0.0
52332.0,STARLINK-3831,PAYLOAD,2024-05-16 17:20:22,15.08836764,0.000243,53.2134,300.8172,87.4729,272.6542,0.00033026,4.971e-05,0.0,0 STARLINK-3831,1 52332U 22045B   24137.72247948  .00004971  00000-0  33026-3 0  9996,2 52332  53.2134 300.8172 0002430  87.4729 272.6542 15.08836764115702,6917.89,95.438,541.436,538.074,0.0
52332.0,STARLINK-3831,PAYLOAD,2024-05-17 17:11:11,15.08810817,0.000201,53.2138,296.3564,295.252,64.8264,0.00045729,6.992e-05,0.0,0 STARLINK-3831,1 52332U 22045B   24138.71610399  .00006992  00000-0  45729-3 0  9998,2 52332  53.2138 296.3564 0002010 295.2520  64.8264 15.08810817115851,6917.97,95.439,541.225,538.444,0.0
52332.0,STARLINK-3831,PAYLOAD,2024-05-18 10:40:26,15.08840183,0.000221,53.2095,293.0817,89.1588,270.9657,0.00084366,0.00013165,0.0,0 STARLINK-3831,1 52332U 22045B   24139.44474546  .00013165  00000-0  84366-3 0  9991,2 52332  53.2095 293.0817 0002210  89.1588 270.9657 15.08840183115961,6917.88,95.438,541.274,538.216,0.0
52332.0,STARLINK-3831,PAYLOAD,2024-05-18 13:51:12,15.08854385,0.0001415,53.2121,292.4907,78.0902,282.0249,0.0012275,0.00019309,0.0,0 STARLINK-3831,1 52332U 22045B   24139.57722356  .00019309  00000-0  12275-2 0  9995,2 52332  53.2121 292.4907 0001415  78.0902 282.0249 15.08854385115989,6917.836,95.437,540.68,538.723,0.0
52332.0,STARLINK-3831,PAYLOAD,2024-05-18 17:01:58,15.08879292,0.0001449,53.2145,291.8964,71.5464,288.5685,0.0021042,0.00033396,0.0,0 STARLINK-3831,1 52332U 22045B   24139.70969972  .00033396  00000-0  21042-2 0  9991,2 52332  53.2145 291.8964 0001449  71.5464 288.5685 15.08879292116002,6917.76,95.435,540.628,538.623,0.0
52332.0,STARLINK-3831,PAYLOAD,2024-05-19 02:34:15,15.0892525,0.000161,53.2171,290.1114,75.1729,284.9442,0.0025707,0.00040959,0.0,0 STARLINK-3831,1 52332U 22045B   24140.10712012  .00040959  00000-0  25707-2 0  9993,2 52332  53.2171 290.1114 0001610  75.1729 284.9442 15.08925250116067,6917.62,95.432,540.599,538.371,0.0
52332.0,STARLINK-3831,PAYLOAD,2024-05-19 13:41:58,15.08815182,0.0001562,53.2167,288.0304,102.2522,257.8645,-0.00056689,-9.293e-05,0.0,0 STARLINK-3831,1 52332U 22045B   24140.57081034 -.00009293  00000-0 -56689-3 0  9999,2 52332  53.2167 288.0304 0001562 102.2522 257.8645 15.08815182116132,6917.956,95.439,540.902,538.741,0.0
52332.0,STARLINK-3831,PAYLOAD,2024-05-19 16:52:44,15.08813808,0.0001562,53.2174,287.4374,107.2635,252.8529,0.0016576,0.00026172,0.0,0 STARLINK-3831,1 52332U 22045B   24140.70329559  .00026172  00000-0  16576-2 0  9994,2 52332  53.2174 287.4374 0001562 107.2635 252.8529 15.08813808116151,6917.96,95.439,540.906,538.745,0.0
52332.0,STARLINK-3831,PAYLOAD,2024-05-20 13:32:46,15.08851369,0.0001786,53.2174,283.5729,113.9061,246.2118,0.0016011,0.00025293,0.0,0 STARLINK-3831,1 52332U 22045B   24141.56442212  .00025293  00000-0  16011-2 0  9998,2 52332  53.2174 283.5729 0001786 113.9061 246.2118 15.08851369116286,6917.846,95.437,540.946,538.475,0.0
52332.0,STARLINK-3831,PAYLOAD,2024-05-20 15:08:09,15.08849452,0.000153,53.2167,283.2732,104.8439,255.2723,0.0013724,0.00021627,0.0,0 STARLINK-3831,1 52332U 22045B   24141.63066214  .00021627  00000-0  13724-2 0  9995,2 52332  53.2167 283.2732 0001530 104.8439 255.2723 15.08849452116297,6917.851,95.437,540.775,538.658,0.0
52332.0,STARLINK-3831,PAYLOAD,2024-05-21 13:23:33,15.08840995,0.000158,53.216,279.1062,102.1931,257.9238,0.00048168,7.386e-05,0.0,0 STARLINK-3831,1 52332U 22045B   24142.55802539  .00007386  00000-0  48168-3 0  9992,2 52332  53.2160 279.1062 0001580 102.1931 257.9238 15.08840995116432,6917.877,95.437,540.835,538.649,0.0
52332.0,STARLINK-3831,PAYLOAD,2024-05-21 16:34:19,15.08837018,0.0001417,53.2165,278.5134,87.0019,273.1136,0.00019651,2.841e-05,0.0,0 STARLINK-3831,1 52332U 22045B   24142.69050673  .00002841  00000-0  19651-3 0  9997,2 52332  53.2165 278.5134 0001417  87.0019 273.1136 15.08837018116458,6917.89,95.438,540.735,538.774,0.0
52332.0,STARLINK-3831,PAYLOAD,2024-05-23 05:08:10,15.0882588,0.000198,53.2163,271.6736,122.1475,237.971,-0.00048356,-7.973e-05,0.0,0 STARLINK-3831,1 52332U 22045B   24144.21401124 -.00007973  00000-0 -48356-3 0  9995,2 52332  53.2163 271.6736 0001980 122.1475 237.9710 15.08825880116685,6917.924,95.438,541.158,538.419,0.0
52332.0,STARLINK-3831,PAYLOAD,2024-05-23 14:40:29,15.08830963,0.0001595,53.216,269.892,84.0362,276.0812,-5.1762e-05,-1.112e-05,0.0,0 STARLINK-3831,1 52332U 22045B   24144.61145727 -.00001112  00000-0 -51762-4 0  9998,2 52332  53.2160 269.8920 0001595  84.0362 276.0812 15.08830963116741,6917.908,95.438,540.876,538.67,0.0
52332.0,STARLINK-3831,PAYLOAD,2024-05-23 19:26:39,15.08843424,0.0001638,53.2161,269.0,86.4605,273.6574,0.00046031,7.046e-05,0.0,0 STARLINK-3831,1 52332U 22045B   24144.81017519  .00007046  00000-0  46031-3 0  9999,2 52332  53.2161 269.0000 0001638  86.4605 273.6574 15.08843424116774,6917.87,95.437,540.868,538.602,0.0
52332.0,STARLINK-3831,PAYLOAD,2024-05-24 12:55:54,15.08852199,0.0001632,53.216,265.7292,88.8612,271.2567,0.0015194,0.00023984,0.0,0 STARLINK-3831,1 52332U 22045B   24145.53882445  .00023984  00000-0  15194-2 0  9991,2 52332  53.2160 265.7292 0001632  88.8612 271.2567 15.08852199116884,6917.843,95.437,540.837,538.579,0.0
